GLOBALSTAR M070 [+]     
1 32264U 07048B   23249.94666245 -.00000079  00000+0  13853-3 0  9997
2 32264  51.9756 306.2840 0000899 116.5512  57.3415 12.62277527732651
GLOBALSTAR M066 [+]     
1 32265U 07048C   23249.18470883 -.00000054  00000+0  27753-3 0  9992
2 32265  51.9669 170.6841 0000844 334.2838 169.9262 12.62263366733847
GLOBALSTAR M068 [-]     
1 32266U 07048D   23249.94508890 -.00000076  00000+0  15347-3 0  9997
2 32266  51.9880 121.2610 0001181 107.0645 264.9992 12.62765837735530
GLOBALSTAR M079 [+]     
1 37188U 10054A   23249.64862186 -.00000088  00000+0  86057-4 0  9994
2 37188  52.0056 317.0899 0000335  97.5573  45.4545 12.62267443594429
GLOBALSTAR M074 [+]     
1 37189U 10054B   23249.91932672 -.00000083  00000+0  11363-3 0  9995
2 37189  52.0028 315.6891 0000556 106.3384  67.4480 12.62269516595065
GLOBALSTAR M076 [+]     
1 37190U 10054C   23249.94539073 -.00000081  00000+0  12610-3 0  9992
2 37190  52.0040 315.7199 0000726  52.9697 120.3837 12.62260709594783
GLOBALSTAR M077 [+]     
1 37191U 10054D   23249.85345073 -.00000093  00000+0  60946-4 0  9997
2 37191  52.0056 272.6703 0000408 101.9443  71.9664 12.62260571595141
